start=new Date('2023-05-02T00:00:00.000Z').valueOf();
sats=[{"PERIOD":"95.590","RA_OF_ASC_NODE":"179.6598","TLE_LINE1":"1 46534U 20070C   23121.50397007  .00011193  00000-0  76854-3 0  9999","INCLINATION":"53.0537","MEAN_MOTION_DOT":"0.00011193","FILE":"3898258","SEMIMAJOR_AXIS":"6925.264","OBJECT_ID":"2020-070C","EPHEMERIS_TYPE":"0","EPOCH":"2023-05-01T12:05:43.014048","APOAPSIS":"548.083","MEAN_ANOMALY":"261.7355","OBJECT_TYPE":"PAYLOAD","NORAD_CAT_ID":"46534","PERIAPSIS":"546.176","CENTER_NAME":"EARTH","GP_ID":"231017852","ECCENTRICITY":"0.00013770","CLASSIFICATION_TYPE":"U","MEAN_MOTION_DDOT":"0.0000000000000","COUNTRY_CODE":"US","REF_FRAME":"TEME","MEAN_MOTION":"15.06427443","DECAY_DATE":null,"BSTAR":"0.00076854000000","RCS_SIZE":"LARGE","ARG_OF_PERICENTER":"98.3790","REV_AT_EPOCH":"14227","TIME_SYSTEM":"UTC","SITE":"AFETR","LAUNCH_DATE":"2020-10-06","TLE_LINE2":"2 46534  53.0537 179.6598 0001377  98.3790 261.7355 15.06427443142277","ELEMENT_SET_NO":"999","MEAN_ELEMENT_THEORY":"SGP4","OBJECT_NAME":"STARLINK-1659"},{"RCS_SIZE":"LARGE","DECAY_DATE":null,"BSTAR":"0.00103170000000","ARG_OF_PERICENTER":"74.1817","REV_AT_EPOCH":"14228","COUNTRY_CODE":"US","MEAN_MOTION_DDOT":"0.0000000000000","MEAN_MOTION":"15.06432665","REF_FRAME":"TEME","OBJECT_NAME":"STARLINK-1663","MEAN_ELEMENT_THEORY":"SGP4","SITE":"AFETR","LAUNCH_DATE":"2020-10-06","TIME_SYSTEM":"UTC","ELEMENT_SET_NO":"999","TLE_LINE2":"2 46535  53.0528 179.1144 0001359  74.1817 285.9322 15.06432665142287","FILE":"3898518","OBJECT_ID":"2020-070D","SEMIMAJOR_AXIS":"6925.248","MEAN_MOTION_DOT":"0.00015132","INCLINATION":"53.0528","EPHEMERIS_TYPE":"0","RA_OF_ASC_NODE":"179.1144","PERIOD":"95.590","TLE_LINE1":"1 46535U 20070D   23121.62560447  .00015132  00000-0  10317-2 0  9991","ECCENTRICITY":"0.00013590","GP_ID":"231050162","CENTER_NAME":"EARTH","CLASSIFICATION_TYPE":"U","APOAPSIS":"548.055","EPOCH":"2023-05-01T15:00:52.226208","PERIAPSIS":"546.172","NORAD_CAT_ID":"46535","OBJECT_TYPE":"PAYLOAD","MEAN_ANOMALY":"285.9322"},{"TLE_LINE1":"1 46537U 20070F   23121.45235949  .00013869  00000-0  94796-3 0  9999","RA_OF_ASC_NODE":"179.8871","PERIOD":"95.592","EPHEMERIS_TYPE":"0","OBJECT_ID":"2020-070F","FILE":"3898258","SEMIMAJOR_AXIS":"6925.330","MEAN_MOTION_DOT":"0.00013869","INCLINATION":"53.0538","OBJECT_TYPE":"PAYLOAD","MEAN_ANOMALY":"272.0543","NORAD_CAT_ID":"46537","PERIAPSIS":"546.163","APOAPSIS":"548.227","EPOCH":"2023-05-01T10:51:23.859936","CLASSIFICATION_TYPE":"U","GP_ID":"231017352","ECCENTRICITY":"0.00014900","CENTER_NAME":"EARTH","REF_FRAME":"TEME","MEAN_MOTION":"15.06406056","COUNTRY_CODE":"US","MEAN_MOTION_DDOT":"0.0000000000000","REV_AT_EPOCH":"14226","BSTAR":"0.00094796000000","DECAY_DATE":null,"RCS_SIZE":"LARGE","ARG_OF_PERICENTER":"88.0616","ELEMENT_SET_NO":"999","TLE_LINE2":"2 46537  53.0538 179.8871 0001490  88.0616 272.0543 15.06406056142266","LAUNCH_DATE":"2020-10-06","SITE":"AFETR","TIME_SYSTEM":"UTC","MEAN_ELEMENT_THEORY":"SGP4","OBJECT_NAME":"STARLINK-1672"},{"MEAN_ELEMENT_THEORY":"SGP4","OBJECT_NAME":"STARLINK-1678","LAUNCH_DATE":"2020-10-06","SITE":"AFETR","TIME_SYSTEM":"UTC","ELEMENT_SET_NO":"999","TLE_LINE2":"2 46538  53.0542 179.9934 0000890  43.1382 316.9677 15.06416708142258","BSTAR":"0.00030159000000","DECAY_DATE":null,"RCS_SIZE":"LARGE","ARG_OF_PERICENTER":"43.1382","REV_AT_EPOCH":"14225","COUNTRY_CODE":"US","MEAN_MOTION_DDOT":"0.0000000000000","REF_FRAME":"TEME","MEAN_MOTION":"15.06416708","GP_ID":"231017602","ECCENTRICITY":"0.00008900","CENTER_NAME":"EARTH","CLASSIFICATION_TYPE":"U","APOAPSIS":"547.779","EPOCH":"2023-05-01T10:19:33.806496","NORAD_CAT_ID":"46538","OBJECT_TYPE":"PAYLOAD","MEAN_ANOMALY":"316.9677","PERIAPSIS":"546.546","OBJECT_ID":"2020-070G","FILE":"3898258","SEMIMAJOR_AXIS":"6925.297","MEAN_MOTION_DOT":"0.00004216","INCLINATION":"53.0542","EPHEMERIS_TYPE":"0","RA_OF_ASC_NODE":"179.9934","PERIOD":"95.591","TLE_LINE1":"1 46538U 20070G   23121.43025239  .00004216  00000-0  30159-3 0  9996"},{"LAUNCH_DATE":"2020-10-06","SITE":"AFETR","TIME_SYSTEM":"UTC","ELEMENT_SET_NO":"999","TLE_LINE2":"2 46541  53.0536 160.0838 0001186  97.5437 262.5687 15.06424072142533","MEAN_ELEMENT_THEORY":"SGP4","OBJECT_NAME":"STARLINK-1687","COUNTRY_CODE":"US","MEAN_MOTION_DDOT":"0.0000000000000","REF_FRAME":"TEME","MEAN_MOTION":"15.06424072","RCS_SIZE":"LARGE","DECAY_DATE":null,"ARG_OF_PERICENTER":"97.5437","BSTAR":"0.00061106000000","REV_AT_EPOCH":"14253","APOAPSIS":"547.961","EPOCH":"2023-05-01T09:50:22.090560","NORAD_CAT_ID":"46541","OBJECT_TYPE":"PAYLOAD","MEAN_ANOMALY":"262.5687","PERIAPSIS":"546.318","GP_ID":"231018352","ECCENTRICITY":"0.00011860","CENTER_NAME":"EARTH","CLASSIFICATION_TYPE":"U","RA_OF_ASC_NODE":"160.0838","PERIOD":"95.591","TLE_LINE1":"1 46541U 20070K   23121.40997790  .00008838  00000-0  61106-3 0  9997","SEMIMAJOR_AXIS":"6925.275","FILE":"3898258","OBJECT_ID":"2020-070K","MEAN_MOTION_DOT":"0.00008838","INCLINATION":"53.0536","EPHEMERIS_TYPE":"0"},{"REF_FRAME":"TEME","MEAN_MOTION":"15.06413421","MEAN_MOTION_DDOT":"0.0000000000000","COUNTRY_CODE":"US","REV_AT_EPOCH":"14229","ARG_OF_PERICENTER":"83.6398","DECAY_DATE":null,"RCS_SIZE":"LARGE","BSTAR":"0.00083139000000","TLE_LINE2":"2 46542  53.0536 178.8763 0001530  83.6398 276.4765 15.06413421142293","ELEMENT_SET_NO":"999","TIME_SYSTEM":"UTC","LAUNCH_DATE":"2020-10-06","SITE":"AFETR","MEAN_ELEMENT_THEORY":"SGP4","OBJECT_NAME":"STARLINK-1692","TLE_LINE1":"1 46542U 20070L   23121.67721218  .00012128  00000-0  83139-3 0  9994","PERIOD":"95.591","RA_OF_ASC_NODE":"178.8763","EPHEMERIS_TYPE":"0","INCLINATION":"53.0536","FILE":"3898518","OBJECT_ID":"2020-070L","SEMIMAJOR_AXIS":"6925.307","MEAN_MOTION_DOT":"0.00012128","OBJECT_TYPE":"PAYLOAD","NORAD_CAT_ID":"46542","MEAN_ANOMALY":"276.4765","PERIAPSIS":"546.113","EPOCH":"2023-05-01T16:15:11.132352","APOAPSIS":"548.232","CLASSIFICATION_TYPE":"U","CENTER_NAME":"EARTH","GP_ID":"231049662","ECCENTRICITY":"0.00015300"},{"TIME_SYSTEM":"UTC","SITE":"AFETR","LAUNCH_DATE":"2020-10-06","TLE_LINE2":"2 46543  53.0533 179.5432 0001457 100.1920 259.9234 15.06415328142291","ELEMENT_SET_NO":"999","MEAN_ELEMENT_THEORY":"SGP4","OBJECT_NAME":"STARLINK-1693","MEAN_MOTION_DDOT":"0.0000000000000","COUNTRY_CODE":"US","REF_FRAME":"TEME","MEAN_MOTION":"15.06415328","RCS_SIZE":"LARGE","DECAY_DATE":null,"BSTAR":"0.00076902000000","ARG_OF_PERICENTER":"100.1920","REV_AT_EPOCH":"14229","EPOCH":"2023-05-01T12:42:53.523360","APOAPSIS":"548.176","NORAD_CAT_ID":"46543","OBJECT_TYPE":"PAYLOAD","MEAN_ANOMALY":"259.9234","PERIAPSIS":"546.158","CENTER_NAME":"EARTH","GP_ID":"231029623","ECCENTRICITY":"0.00014570","CLASSIFICATION_TYPE":"U","PERIOD":"95.591","RA_OF_ASC_NODE":"179.5432","TLE_LINE1":"1 46543U 20070M   23121.52978615  .00011196  00000-0  76902-3 0  9998","INCLINATION":"53.0533","FILE":"3898469","SEMIMAJOR_AXIS":"6925.302","MEAN_MOTION_DOT":"0.00011196","OBJECT_ID":"2020-070M","EPHEMERIS_TYPE":"0"},{"CENTER_NAME":"EARTH","GP_ID":"231029631","ECCENTRICITY":"0.00014520","CLASSIFICATION_TYPE":"U","EPOCH":"2023-05-01T09:25:49.450080","APOAPSIS":"548.210","OBJECT_TYPE":"PAYLOAD","MEAN_ANOMALY":"273.5208","NORAD_CAT_ID":"46544","PERIAPSIS":"546.199","INCLINATION":"53.0527","FILE":"3898469","OBJECT_ID":"2020-070N","SEMIMAJOR_AXIS":"6925.339","MEAN_MOTION_DOT":"0.00005567","EPHEMERIS_TYPE":"0","PERIOD":"95.592","RA_OF_ASC_NODE":"165.1569","TLE_LINE1":"1 46544U 20070N   23121.39293345  .00005567  00000-0  39229-3 0  9990","MEAN_ELEMENT_THEORY":"SGP4","OBJECT_NAME":"STARLINK-1694","TIME_SYSTEM":"UTC","LAUNCH_DATE":"2020-10-06","SITE":"AFETR","TLE_LINE2":"2 46544  53.0527 165.1569 0001452  86.5947 273.5208 15.06403072142474","ELEMENT_SET_NO":"999","DECAY_DATE":null,"RCS_SIZE":"LARGE","ARG_OF_PERICENTER":"86.5947","BSTAR":"0.00039229000000","REV_AT_EPOCH":"14247","MEAN_MOTION_DDOT":"0.0000000000000","COUNTRY_CODE":"US","REF_FRAME":"TEME","MEAN_MOTION":"15.06403072"},{"REF_FRAME":"TEME","MEAN_MOTION":"15.06422368","MEAN_MOTION_DDOT":"0.0000000000000","COUNTRY_CODE":"US","REV_AT_EPOCH":"14226","RCS_SIZE":"LARGE","DECAY_DATE":null,"ARG_OF_PERICENTER":"105.3842","BSTAR":"0.00058687000000","TLE_LINE2":"2 46545  53.0545 179.6776 0001584 105.3842 254.7322 15.06422368142269","ELEMENT_SET_NO":"999","TIME_SYSTEM":"UTC","LAUNCH_DATE":"2020-10-06","SITE":"AFETR","MEAN_ELEMENT_THEORY":"SGP4","OBJECT_NAME":"STARLINK-1696","TLE_LINE1":"1 46545U 20070P   23121.50028299  .00008476  00000-0  58687-3 0  9999","PERIOD":"95.591","RA_OF_ASC_NODE":"179.6776","EPHEMERIS_TYPE":"0","INCLINATION":"53.0545","SEMIMAJOR_AXIS":"6925.280","FILE":"3898258","OBJECT_ID":"2020-070P","MEAN_MOTION_DOT":"0.00008476","NORAD_CAT_ID":"46545","OBJECT_TYPE":"PAYLOAD","MEAN_ANOMALY":"254.7322","PERIAPSIS":"546.048","EPOCH":"2023-05-01T12:00:24.450336","APOAPSIS":"548.242","CLASSIFICATION_TYPE":"U","CENTER_NAME":"EARTH","GP_ID":"231017853","ECCENTRICITY":"0.00015840"},{"INCLINATION":"53.0525","SEMIMAJOR_AXIS":"6925.276","FILE":"3898469","MEAN_MOTION_DOT":"0.00013267","OBJECT_ID":"2020-070Q","EPHEMERIS_TYPE":"0","PERIOD":"95.591","RA_OF_ASC_NODE":"180.0363","TLE_LINE1":"1 46546U 20070Q   23121.41919633  .00013267  00000-0  90730-3 0  9990","CENTER_NAME":"EARTH","GP_ID":"231029411","ECCENTRICITY":"0.00017390","CLASSIFICATION_TYPE":"U","EPOCH":"2023-05-01T10:03:38.562912","APOAPSIS":"548.345","NORAD_CAT_ID":"46546","OBJECT_TYPE":"PAYLOAD","MEAN_ANOMALY":"269.9153","PERIAPSIS":"545.936","RCS_SIZE":"LARGE","DECAY_DATE":null,"ARG_OF_PERICENTER":"90.2035","BSTAR":"0.00090730000000","REV_AT_EPOCH":"14196","MEAN_MOTION_DDOT":"0.0000000000000","COUNTRY_CODE":"US","REF_FRAME":"TEME","MEAN_MOTION":"15.06423752","MEAN_ELEMENT_THEORY":"SGP4","OBJECT_NAME":"STARLINK-1697","TIME_SYSTEM":"UTC","LAUNCH_DATE":"2020-10-06","SITE":"AFETR","TLE_LINE2":"2 46546  53.0525 180.0363 0001739  90.2035 269.9153 15.06423752141968","ELEMENT_SET_NO":"999"}];
